{
  "links" : {
    "next" : "https://api.nasa.gov/neo/rest/v1/neo/browse?page=6&size=20&api_key=jqAGvNAwUIBu4fl9FSOjdm3V4F7hIglRzI6pdX9d",
    "prev" : "https://api.nasa.gov/neo/rest/v1/neo/browse?page=4&size=20&api_key=jqAGvNAwUIBu4fl9FSOjdm3V4F7hIglRzI6pdX9d",
    "self" : "https://api.nasa.gov/neo/rest/v1/neo/browse?page=5&size=20&api_key=jqAGvNAwUIBu4fl9FSOjdm3V4F7hIglRzI6pdX9d"
  },
  "page" : {
    "size" : 20,
    "total_elements" : 20750,
    "total_pages" : 1038,
    "number" : 5
  },
  "near_earth_objects" : [ {
    "links" : {
      "self" : "https://api.nasa.gov/neo/rest/v1/neo/3092271?api_key=jqAGvNAwUIBu4fl9FSOjdm3V4F7hIglRzI6pdX9d"
    },
    "neo_reference_id" : "3092271",
    "name" : "(2000 RK12)",
    "designation" : "2000 RK12",
    "nasa_jpl_url" : "http://ssd.jpl.nasa.gov/sbdb.cgi?sstr=3092271",
    "absolute_magnitude_h" : 21.264,
    "estimated_diameter" : {
      "kilometers" : {
        "estimated_diameter_min" : 0.1485097533,
        "estimated_diameter_max" : 0.3320779037
      },
      "meters" : {
        "estimated_diameter_min" : 148.5097532846,
        "estimated_diameter_max" : 332.0779036661
      },
      "miles" : {
        "estimated_diameter_min" : 0.0922796539,
        "estimated_diameter_max" : 0.2063435791
      },
      "feet" : {
        "estimated_diameter_min" : 487.2367389663,
        "estimated_diameter_max" : 1089.4944694639
      }
    },
    "is_potentially_hazardous_asteroid" : false,
    "close_approach_data" : [ {
      "close_approach_date" : "2000-09-09",
      "epoch_date_close_approach" : 968482800000,
      "relative_velocity" : {
        "kilometers_per_second" : "22.8378140932",
        "kilometers_per_hour" : "82216.1307354649",
        "miles_per_hour" : "51085.9063450449"
      },
      "miss_distance" : {
        "astronomical" : "0.0656076431",
        "lunar" : "25.5213737488",
        "kilometers" : "9814764",
        "miles" : "6098611.5"
      },
      "orbiting_body" : "Earth"
    } ],
    "orbital_data" : {
      "orbit_id" : "12",
      "orbit_determination_date" : "2017-04-06 09:16:52",
      "first_observation_date" : "2000-09-01",
      "last_observation_date" : "2000-09-05",
      "data_arc_in_days" : 4,
      "observations_used" : 25,
      "orbit_uncertainty" : "9",
      "minimum_orbit_intersection" : ".0526742",
      "jupiter_tisserand_invariant" : "2.922",
      "epoch_osculation" : "2451791.5",
      "eccentricity" : ".6881548280236616",
      "semi_major_axis" : "2.519111393922145",
      "inclination" : "31.96204394659436",
      "ascending_node_longitude" : "162.2414242764888",
      "orbital_period" : "1460.39213441864",
      "perihelion_distance" : ".7855727258652049",
      "perihelion_argument" : "250.8862141243768",
      "aphelion_distance" : "4.252650061979085",
      "perihelion_time" : "2451842.269289783467",
      "mean_anomaly" : "347.4849063540568",
      "mean_motion" : ".2465091337562637",
      "equinox" : "J2000",
      "orbit_class" : {
        "orbit_class_type" : "APO",
        "orbit_class_range" : "a (semi-major axis) > 1.0 AU; q (perihelion) < 1.017 AU",
        "orbit_class_description" : "Near-Earth asteroid orbits which cross the Earth’s orbit similar to that of 1862 Apollo"
      }
    },
    "is_sentry_object" : false
  }, {
    "links" : {
      "self" : "https://api.nasa.gov/neo/rest/v1/neo/3065556?api_key=jqAGvNAwUIBu4fl9FSOjdm3V4F7hIglRzI6pdX9d"
    },
    "neo_reference_id" : "3065556",
    "name" : "(2000 RD52)",
    "designation" : "2000 RD52",
    "nasa_jpl_url" : "http://ssd.jpl.nasa.gov/sbdb.cgi?sstr=3065556",
    "absolute_magnitude_h" : 20.6,
    "estimated_diameter" : {
      "kilometers" : {
        "estimated_diameter_min" : 0.2016299194,
        "estimated_diameter_max" : 0.4508582062
      },
      "meters" : {
        "estimated_diameter_min" : 201.6299194428,
        "estimated_diameter_max" : 450.8582061718
      },
      "miles" : {
        "estimated_diameter_min" : 0.1252869847,
        "estimated_diameter_max" : 0.2801502144
      },
      "feet" : {
        "estimated_diameter_min" : 661.5155049046,
        "estimated_diameter_max" : 1479.1936371367
      }
    },
    "is_potentially_hazardous_asteroid" : false,
    "close_approach_data" : [ {
      "close_approach_date" : "2000-08-20",
      "epoch_date_close_approach" : 966754800000,
      "relative_velocity" : {
        "kilometers_per_second" : "3.7754084101",
        "kilometers_per_hour" : "13591.470276394",
        "miles_per_hour" : "8445.2110725738"
      },
      "miss_distance" : {
        "astronomical" : "0.228395664",
        "lunar" : "88.845916748",
        "kilometers" : "34167508",
        "miles" : "21230704"
      },
      "orbiting_body" : "Earth"
    } ],
    "orbital_data" : {
      "orbit_id" : "11",
      "orbit_determination_date" : "2017-04-06 09:16:52",
      "first_observation_date" : "2000-09-02",
      "last_observation_date" : "2000-12-01",
      "data_arc_in_days" : 90,
      "observations_used" : 25,
      "orbit_uncertainty" : "6",
      "minimum_orbit_intersection" : ".215206",
      "jupiter_tisserand_invariant" : "3.523",
      "epoch_osculation" : "2458600.5",
      "eccentricity" : ".4447541086895632",
      "semi_major_axis" : "2.203100757228903",
      "inclination" : "4.931653655736039",
      "ascending_node_longitude" : "309.0029919273501",
      "orbital_period" : "1194.400472428394",
      "perihelion_distance" : "1.22326264359426",
      "perihelion_argument" : "24.78237948044847",
      "aphelion_distance" : "3.182938870863545",
      "perihelion_time" : "2458957.975900592351",
      "mean_anomaly" : "252.2544597193622",
      "mean_motion" : ".3014064447480219",
      "equinox" : "J2000",
      "orbit_class" : {
        "orbit_class_type" : "AMO",
        "orbit_class_range" : "1.017 AU < q (perihelion) < 1.3 AU",
        "orbit_class_description" : "Near-Earth asteroid orbits similar to that of 1221 Amor"
      }
    },
    "is_sentry_object" : false
  }, {
    "links" : {
      "self" : "https://api.nasa.gov/neo/rest/v1/neo/3092273?api_key=jqAGvNAwUIBu4fl9FSOjdm3V4F7hIglRzI6pdX9d"
    },
    "neo_reference_id" : "3092273",
    "name" : "(2000 RK60)",
    "designation" : "2000 RK60",
    "nasa_jpl_url" : "http://ssd.jpl.nasa.gov/sbdb.cgi?sstr=3092273",
    "absolute_magnitude_h" : 21.6,
    "estimated_diameter" : {
      "kilometers" : {
        "estimated_diameter_min" : 0.1272198785,
        "estimated_diameter_max" : 0.2844722965
      },
      "meters" : {
        "estimated_diameter_min" : 127.2198785394,
        "estimated_diameter_max" : 284.4722965033
      },
      "miles" : {
        "estimated_diameter_min" : 0.0790507431,
        "estimated_diameter_max" : 0.1767628354
      },
      "feet" : {
        "estimated_diameter_min" : 417.3880663071,
        "estimated_diameter_max" : 933.3080892598
      }
    },
    "is_potentially_hazardous_asteroid" : false,
    "close_approach_data" : [ {
      "close_approach_date" : "2000-08-28",
      "epoch_date_close_approach" : 967446000000,
      "relative_velocity" : {
        "kilometers_per_second" : "5.5823923212",
        "kilometers_per_hour" : "20096.6123564753",
        "miles_per_hour" : "12487.2533833888"
      },
      "miss_distance" : {
        "astronomical" : "0.138437208",
        "lunar" : "53.8520736694",
        "kilometers" : "20709912",
        "miles" : "12868543"
      },
      "orbiting_body" : "Earth"
    }, {
      "close_approach_date" : "2016-10-01",
      "epoch_date_close_approach" : 1475305200000,
      "relative_velocity" : {
        "kilometers_per_second" : "17.4016098866",
        "kilometers_per_hour" : "62645.7955917186",
        "miles_per_hour" : "38925.6611553098"
      },
      "miss_distance" : {
        "astronomical" : "0.4730255594",
        "lunar" : "184.006942749",
        "kilometers" : "70763616",
        "miles" : "43970472"
      },
      "orbiting_body" : "Earth"
    } ],
    "orbital_data" : {
      "orbit_id" : "13",
      "orbit_determination_date" : "2017-04-06 09:16:52",
      "first_observation_date" : "2000-09-06",
      "last_observation_date" : "2000-10-04",
      "data_arc_in_days" : 28,
      "observations_used" : 70,
      "orbit_uncertainty" : "7",
      "minimum_orbit_intersection" : ".130001",
      "jupiter_tisserand_invariant" : "3.511",
      "epoch_osculation" : "2458600.5",
      "eccentricity" : ".4893418352712304",
      "semi_major_axis" : "2.177308968136932",
      "inclination" : "6.612719669410732",
      "ascending_node_longitude" : "196.8522910208492",
      "orbital_period" : "1173.487638110512",
      "perihelion_distance" : "1.111860601716296",
      "perihelion_argument" : "133.9421779801533",
      "aphelion_distance" : "3.242757334557567",
      "perihelion_time" : "2458823.498460136560",
      "mean_anomaly" : "291.5890146244545",
      "mean_motion" : ".306777837540456",
      "equinox" : "J2000",
      "orbit_class" : {
        "orbit_class_type" : "AMO",
        "orbit_class_range" : "1.017 AU < q (perihelion) < 1.3 AU",
        "orbit_class_description" : "Near-Earth asteroid orbits similar to that of 1221 Amor"
      }
    },
    "is_sentry_object" : false
  } ]
}